SENTINEL-6B             
1 66514U 25264A   25346.25094248 -.00000017  00000+0  18864-3 0  9993
2 66514  66.0385 163.4531 0007847 270.1745  89.8371 12.81479576  3220
STARLINK-35924          
1 66516U 25265A   25351.13047341  .00026619  00000+0  64168-3 0  9994
2 66516  43.0004  28.8193 0001606 277.4675  82.5999 15.40727417  4430
STARLINK-35937          
1 66517U 25265B   25351.33339120 -.02405287  00000+0 -58698-1 0  9991
2 66517  43.0009  27.2088 0001350 254.6657 335.9129 15.43637434  5731
STARLINK-35962          
1 66518U 25265C   25351.33339120  .00014239  00000+0  34820-3 0  9994
2 66518  43.0006  27.4106 0002202 256.2652 250.2451 15.40637733  5738
STARLINK-35931          
1 66519U 25265D   25351.15887982  .00061025  00000+0  10363-2 0  9999
2 66519  42.9980  28.1628 0001900 280.8936  79.1711 15.50621764  4449
STARLINK-35952          
1 66520U 25265E   25351.00003472  .00055526  00000+0  13290-2 0  9990
2 66520  43.0006  29.4485 0001093 259.7367 145.7624 15.40649949  5676
STARLINK-35915          
1 66521U 25265F   25351.33339120  .00010760  00000+0  26462-3 0  9996
2 66521  43.0008  27.3197 0001052 266.4325 277.2548 15.40684524  5731
STARLINK-35946          
1 66522U 25265G   25350.12721240  .00069941  00000+0  11853-2 0  9993
2 66522  42.9976  34.1834 0001425 304.2198  55.8527 15.50628679  4287
STARLINK-35969          
1 66523U 25265H   25351.15749952  .00060269  00000+0  10242-2 0  9993
2 66523  42.9962  28.1486 0001576 272.7983  87.2696 15.50607333  4445
STARLINK-35687          
1 66524U 25265J   25351.12599403  .00033522  00000+0  80546-3 0  9992
2 66524  43.0029  28.7873 0001019 263.2844  96.7897 15.40728606  4434
STARLINK-35975          
1 66525U 25265K   25351.33339120  .00007711  00000+0  19179-3 0  9999
2 66525  43.0006  27.4699 0001272 269.3331 212.1722 15.40679519  5734
STARLINK-35932          
1 66526U 25265L   25351.33339120  .00011516  00000+0  28265-3 0  9994
2 66526  43.0007  27.2589 0001319 274.3731 294.2087 15.40686531  5629
