CCSDS_OMM_VERS = 2.0
CREATION_DATE  = 
ORIGINATOR     = 

OBJECT_NAME    = SENTINEL-6B
OBJECT_ID      = 2025-264A
CENTER_NAME    = EARTH
REF_FRAME      = TEME
TIME_SYSTEM    = UTC
MEAN_ELEMENT_THEORY = SGP/SGP4

EPOCH          = 2025-12-12T06:01:21.430272
MEAN_MOTION    = 12.81479576
ECCENTRICITY   = .0007847
INCLINATION    = 66.0385
RA_OF_ASC_NODE = 163.4531
ARG_OF_PERICENTER = 270.1745
MEAN_ANOMALY   = 89.8371

EPHEMERIS_TYPE = 0
CLASSIFICATION_TYPE = U
NORAD_CAT_ID   = 66514
ELEMENT_SET_NO = 999
REV_AT_EPOCH   = 322
BSTAR          = .18864317E-3
MEAN_MOTION_DOT = -.17E-6
MEAN_MOTION_DDOT = 0

CCSDS_OMM_VERS = 2.0
CREATION_DATE  = 
ORIGINATOR     = 

OBJECT_NAME    = STARLINK-35924
OBJECT_ID      = 2025-265A
CENTER_NAME    = EARTH
REF_FRAME      = TEME
TIME_SYSTEM    = UTC
MEAN_ELEMENT_THEORY = SGP/SGP4

EPOCH          = 2025-12-17T03:07:52.902624
MEAN_MOTION    = 15.40727417
ECCENTRICITY   = .00016061
INCLINATION    = 43.0004
RA_OF_ASC_NODE = 28.8193
ARG_OF_PERICENTER = 277.4675
MEAN_ANOMALY   = 82.5999

EPHEMERIS_TYPE = 0
CLASSIFICATION_TYPE = U
NORAD_CAT_ID   = 66516
ELEMENT_SET_NO = 999
REV_AT_EPOCH   = 443
BSTAR          = .64167592E-3
MEAN_MOTION_DOT = .26619E-3
MEAN_MOTION_DDOT = 0

CCSDS_OMM_VERS = 2.0
CREATION_DATE  = 
ORIGINATOR     = 

OBJECT_NAME    = STARLINK-35937
OBJECT_ID      = 2025-265B
CENTER_NAME    = EARTH
REF_FRAME      = TEME
TIME_SYSTEM    = UTC
MEAN_ELEMENT_THEORY = SGP/SGP4

EPOCH          = 2025-12-17T08:00:04.999680
MEAN_MOTION    = 15.43637434
ECCENTRICITY   = .00013509
INCLINATION    = 43.0009
RA_OF_ASC_NODE = 27.2088
ARG_OF_PERICENTER = 254.6657
MEAN_ANOMALY   = 335.9129

EPHEMERIS_TYPE = 0
CLASSIFICATION_TYPE = U
NORAD_CAT_ID   = 66517
ELEMENT_SET_NO = 999
REV_AT_EPOCH   = 573
BSTAR          = -.58698177E-1
MEAN_MOTION_DOT = -.2405287E-1
MEAN_MOTION_DDOT = 0

CCSDS_OMM_VERS = 2.0
CREATION_DATE  = 
ORIGINATOR     = 

OBJECT_NAME    = STARLINK-35962
OBJECT_ID      = 2025-265C
CENTER_NAME    = EARTH
REF_FRAME      = TEME
TIME_SYSTEM    = UTC
MEAN_ELEMENT_THEORY = SGP/SGP4

EPOCH          = 2025-12-17T08:00:04.999680
MEAN_MOTION    = 15.40637733
ECCENTRICITY   = .00022024
INCLINATION    = 43.0006
RA_OF_ASC_NODE = 27.4106
ARG_OF_PERICENTER = 256.2652
MEAN_ANOMALY   = 250.2451

EPHEMERIS_TYPE = 0
CLASSIFICATION_TYPE = U
NORAD_CAT_ID   = 66518
ELEMENT_SET_NO = 999
REV_AT_EPOCH   = 573
BSTAR          = .34819706E-3
MEAN_MOTION_DOT = .14239E-3
MEAN_MOTION_DDOT = 0

CCSDS_OMM_VERS = 2.0
CREATION_DATE  = 
ORIGINATOR     = 

OBJECT_NAME    = STARLINK-35931
OBJECT_ID      = 2025-265D
CENTER_NAME    = EARTH
REF_FRAME      = TEME
TIME_SYSTEM    = UTC
MEAN_ELEMENT_THEORY = SGP/SGP4

EPOCH          = 2025-12-17T03:48:47.216448
MEAN_MOTION    = 15.50621764
ECCENTRICITY   = .00019004
INCLINATION    = 42.9980
RA_OF_ASC_NODE = 28.1628
ARG_OF_PERICENTER = 280.8936
MEAN_ANOMALY   = 79.1711

EPHEMERIS_TYPE = 0
CLASSIFICATION_TYPE = U
NORAD_CAT_ID   = 66519
ELEMENT_SET_NO = 999
REV_AT_EPOCH   = 444
BSTAR          = .10363401E-2
MEAN_MOTION_DOT = .61025E-3
MEAN_MOTION_DDOT = 0

CCSDS_OMM_VERS = 2.0
CREATION_DATE  = 
ORIGINATOR     = 

OBJECT_NAME    = STARLINK-35952
OBJECT_ID      = 2025-265E
CENTER_NAME    = EARTH
REF_FRAME      = TEME
TIME_SYSTEM    = UTC
MEAN_ELEMENT_THEORY = SGP/SGP4

EPOCH          = 2025-12-17T00:00:02.999808
MEAN_MOTION    = 15.40649949
ECCENTRICITY   = .00010936
INCLINATION    = 43.0006
RA_OF_ASC_NODE = 29.4485
ARG_OF_PERICENTER = 259.7367
MEAN_ANOMALY   = 145.7624

EPHEMERIS_TYPE = 0
CLASSIFICATION_TYPE = U
NORAD_CAT_ID   = 66520
ELEMENT_SET_NO = 999
REV_AT_EPOCH   = 567
BSTAR          = .13290392E-2
MEAN_MOTION_DOT = .55526E-3
MEAN_MOTION_DDOT = 0

CCSDS_OMM_VERS = 2.0
CREATION_DATE  = 
ORIGINATOR     = 

OBJECT_NAME    = STARLINK-35915
OBJECT_ID      = 2025-265F
CENTER_NAME    = EARTH
REF_FRAME      = TEME
TIME_SYSTEM    = UTC
MEAN_ELEMENT_THEORY = SGP/SGP4

EPOCH          = 2025-12-17T08:00:04.999680
MEAN_MOTION    = 15.40684524
ECCENTRICITY   = .00010527
INCLINATION    = 43.0008
RA_OF_ASC_NODE = 27.3197
ARG_OF_PERICENTER = 266.4325
MEAN_ANOMALY   = 277.2548

EPHEMERIS_TYPE = 0
CLASSIFICATION_TYPE = U
NORAD_CAT_ID   = 66521
ELEMENT_SET_NO = 999
REV_AT_EPOCH   = 573
BSTAR          = .2646176E-3
MEAN_MOTION_DOT = .1076E-3
MEAN_MOTION_DDOT = 0

CCSDS_OMM_VERS = 2.0
CREATION_DATE  = 
ORIGINATOR     = 

OBJECT_NAME    = STARLINK-35946
OBJECT_ID      = 2025-265G
CENTER_NAME    = EARTH
REF_FRAME      = TEME
TIME_SYSTEM    = UTC
MEAN_ELEMENT_THEORY = SGP/SGP4

EPOCH          = 2025-12-16T03:03:11.151360
MEAN_MOTION    = 15.50628679
ECCENTRICITY   = .00014256
INCLINATION    = 42.9976
RA_OF_ASC_NODE = 34.1834
ARG_OF_PERICENTER = 304.2198
MEAN_ANOMALY   = 55.8527

EPHEMERIS_TYPE = 0
CLASSIFICATION_TYPE = U
NORAD_CAT_ID   = 66522
ELEMENT_SET_NO = 999
REV_AT_EPOCH   = 428
BSTAR          = .11852833E-2
MEAN_MOTION_DOT = .69941E-3
MEAN_MOTION_DDOT = 0

CCSDS_OMM_VERS = 2.0
CREATION_DATE  = 
ORIGINATOR     = 

OBJECT_NAME    = STARLINK-35969
OBJECT_ID      = 2025-265H
CENTER_NAME    = EARTH
REF_FRAME      = TEME
TIME_SYSTEM    = UTC
MEAN_ELEMENT_THEORY = SGP/SGP4

EPOCH          = 2025-12-17T03:46:47.958528
MEAN_MOTION    = 15.50607333
ECCENTRICITY   = .00015762
INCLINATION    = 42.9962
RA_OF_ASC_NODE = 28.1486
ARG_OF_PERICENTER = 272.7983
MEAN_ANOMALY   = 87.2696

EPHEMERIS_TYPE = 0
CLASSIFICATION_TYPE = U
NORAD_CAT_ID   = 66523
ELEMENT_SET_NO = 999
REV_AT_EPOCH   = 444
BSTAR          = .10242012E-2
MEAN_MOTION_DOT = .60269E-3
MEAN_MOTION_DDOT = 0

CCSDS_OMM_VERS = 2.0
CREATION_DATE  = 
ORIGINATOR     = 

OBJECT_NAME    = STARLINK-35687
OBJECT_ID      = 2025-265J
CENTER_NAME    = EARTH
REF_FRAME      = TEME
TIME_SYSTEM    = UTC
MEAN_ELEMENT_THEORY = SGP/SGP4

EPOCH          = 2025-12-17T03:01:25.884192
MEAN_MOTION    = 15.40728606
ECCENTRICITY   = .0001019
INCLINATION    = 43.0029
RA_OF_ASC_NODE = 28.7873
ARG_OF_PERICENTER = 263.2844
MEAN_ANOMALY   = 96.7897

EPHEMERIS_TYPE = 0
CLASSIFICATION_TYPE = U
NORAD_CAT_ID   = 66524
ELEMENT_SET_NO = 999
REV_AT_EPOCH   = 443
BSTAR          = .80546237E-3
MEAN_MOTION_DOT = .33522E-3
MEAN_MOTION_DDOT = 0

CCSDS_OMM_VERS = 2.0
CREATION_DATE  = 
ORIGINATOR     = 

OBJECT_NAME    = STARLINK-35975
OBJECT_ID      = 2025-265K
CENTER_NAME    = EARTH
REF_FRAME      = TEME
TIME_SYSTEM    = UTC
MEAN_ELEMENT_THEORY = SGP/SGP4

EPOCH          = 2025-12-17T08:00:04.999680
MEAN_MOTION    = 15.40679519
ECCENTRICITY   = .00012726
INCLINATION    = 43.0006
RA_OF_ASC_NODE = 27.4699
ARG_OF_PERICENTER = 269.3331
MEAN_ANOMALY   = 212.1722

EPHEMERIS_TYPE = 0
CLASSIFICATION_TYPE = U
NORAD_CAT_ID   = 66525
ELEMENT_SET_NO = 999
REV_AT_EPOCH   = 573
BSTAR          = .19178572E-3
MEAN_MOTION_DOT = .7711E-4
MEAN_MOTION_DDOT = 0

CCSDS_OMM_VERS = 2.0
CREATION_DATE  = 
ORIGINATOR     = 

OBJECT_NAME    = STARLINK-35932
OBJECT_ID      = 2025-265L
CENTER_NAME    = EARTH
REF_FRAME      = TEME
TIME_SYSTEM    = UTC
MEAN_ELEMENT_THEORY = SGP/SGP4

EPOCH          = 2025-12-17T08:00:04.999680
MEAN_MOTION    = 15.40686531
ECCENTRICITY   = .00013191
INCLINATION    = 43.0007
RA_OF_ASC_NODE = 27.2589
ARG_OF_PERICENTER = 274.3731
MEAN_ANOMALY   = 294.2087

EPHEMERIS_TYPE = 0
CLASSIFICATION_TYPE = U
NORAD_CAT_ID   = 66526
ELEMENT_SET_NO = 999
REV_AT_EPOCH   = 562
BSTAR          = .28264957E-3
MEAN_MOTION_DOT = .11516E-3
MEAN_MOTION_DDOT = 0

